CSS (TIANHE)            
1 48274U 21035A   26188.71526333  .00008323  00000+0  11198-3 0  9999
2 48274  41.4678 197.1676 0002967 274.9707  85.0792 15.58032039296378
